{
"type": "FeatureCollection",
"name": "Camaras_Salvavidas_Bogota",
"crs": { "type": "name", "properties": { "name": "urn:ogc:def:crs:OGC:1.3:CRS84" } },
"features": [
{ "type": "Feature", "properties": { "FID": 1, "OBJECTID_1": 1, "ID_CÁMARA": "DEI-001/CAM-01", "NOMBRE_DEL": "AV 1 DE MAYO - AV BOYACA (N-S) C. RAP", "LONGITUD": -74.140267, "LATITUD": 4.615664, "DIRECCIÓN": "AV BOYACÁ - CL 35 SUR (N-S)", "NÚMERO_DE": "MT-20194000619861 Diciembre 13 de 2019", "VELOCIDADM": "50", "CORREDOR_P": "Av. Boyacá", "VIA_SECUND": "Av. Primero de Mayo", "SENTIDO": "(Norte - Sur)", "CALZADA": "Rápida", "CARRILES": "2", "LOCALIDAD": "Kennedy", "INFRACCION": "C.29 - C.14 - C.35 - D.02" }, "geometry": { "type": "Point", "coordinates": [ -74.140266999844201, 4.61566400021882 ] } },
{ "type": "Feature", "properties": { "FID": 2, "OBJECTID_1": 2, "ID_CÁMARA": "DEI-001/CAM-02", "NOMBRE_DEL": "AV 1 DE MAYO - AV BOYACA (S-N) C. RAP", "LONGITUD": -74.140261, "LATITUD": 4.615398, "DIRECCIÓN": "AV BOYACÁ - CL 35 SUR (S-N)", "NÚMERO_DE": "MT-20194000619861 Diciembre 13 de 2019", "VELOCIDADM": "50", "CORREDOR_P": "Av. Boyacá", "VIA_SECUND": "Av. Primero de Mayo", "SENTIDO": "(Sur - Norte)", "CALZADA": "Rápida", "CARRILES": "2", "LOCALIDAD": "Kennedy", "INFRACCION": "C.29 - C.14 - C.35 - D.02" }, "geometry": { "type": "Point", "coordinates": [ -74.1402609999964, 4.61539799952357 ] } },
{ "type": "Feature", "properties": { "FID": 3, "OBJECTID_1": 3, "ID_CÁMARA": "DEI-002/CAM-01", "NOMBRE_DEL": "AV BOYACA - AV AMERICAS (N-S) C. RAP", "LONGITUD": -74.13798, "LATITUD": 4.628593, "DIRECCIÓN": "AV BOYACÁ - CL 5A (N-S)", "NÚMERO_DE": "MT-20194000619861 Diciembre 13 de 2019", "VELOCIDADM": "50", "CORREDOR_P": "Av. Boyacá", "VIA_SECUND": "Av. Américas", "SENTIDO": "(Norte - Sur)", "CALZADA": "Rápida", "CARRILES": "2", "LOCALIDAD": "Kennedy", "INFRACCION": "C.29 - C.14 - C.35 - D.02" }, "geometry": { "type": "Point", "coordinates": [ -74.137979999623596, 4.62859299971563 ] } },
{ "type": "Feature", "properties": { "FID": 4, "OBJECTID_1": 4, "ID_CÁMARA": "DEI-002/CAM-02", "NOMBRE_DEL": "AV BOYACA - AV AMERICAS (S-N) C. RAP", "LONGITUD": -74.137915, "LATITUD": 4.628479, "DIRECCIÓN": "AV BOYACÁ - CL 5A (S-N)", "NÚMERO_DE": "MT-20194000619861 Diciembre 13 de 2019", "VELOCIDADM": "50", "CORREDOR_P": "Av. Boyacá", "VIA_SECUND": "Av. Américas", "SENTIDO": "(Sur - Norte)", "CALZADA": "Rápida", "CARRILES": "2", "LOCALIDAD": "Kennedy", "INFRACCION": "C.29 - C.14 - C.35 - D.02" }, "geometry": { "type": "Point", "coordinates": [ -74.137915000224595, 4.62847900010254 ] } },
{ "type": "Feature", "properties": { "FID": 5, "OBJECTID_1": 5, "ID_CÁMARA": "DEI-003/CAM-01", "NOMBRE_DEL": "AK 68 - AV AMERICAS (S-N) C. RAP", "LONGITUD": -74.123054, "LATITUD": 4.627311, "DIRECCIÓN": "AK 68 - CL 4D (S-N)", "NÚMERO_DE": "MT-20194000619861 Diciembre 13 de 2019", "VELOCIDADM": "50", "CORREDOR_P": "Av. Carrera 68", "VIA_SECUND": "Av. Américas", "SENTIDO": "(Sur - Norte)", "CALZADA": "Rápida", "CARRILES": "2", "LOCALIDAD": "Puente Aranda", "INFRACCION": "C.29 - C.14 - C.35 - D.02" }, "geometry": { "type": "Point", "coordinates": [ -74.123053999799495, 4.62731099972574 ] } },
{ "type": "Feature", "properties": { "FID": 6, "OBJECTID_1": 6, "ID_CÁMARA": "DEI-003/CAM-02", "NOMBRE_DEL": "AK 68 - AV AMERICAS (N-S) C. RAP", "LONGITUD": -74.122984, "LATITUD": 4.627579, "DIRECCIÓN": "AK 68 - CL 4D (N-S)", "NÚMERO_DE": "MT-20194000619861 Diciembre 13 de 2019", "VELOCIDADM": "50", "CORREDOR_P": "Av. Carrera 68", "VIA_SECUND": "Av. Américas", "SENTIDO": "(Norte - Sur)", "CALZADA": "Rápida", "CARRILES": "2", "LOCALIDAD": "Puente Aranda", "INFRACCION": "C.29 - C.14 - C.35 - D.02" }, "geometry": { "type": "Point", "coordinates": [ -74.122984000377599, 4.6275789998262 ] } },
{ "type": "Feature", "properties": { "FID": 7, "OBJECTID_1": 7, "ID_CÁMARA": "DEI-004/CAM-01", "NOMBRE_DEL": "CL 139 - TV 136 (O-E)", "LONGITUD": -74.1124386, "LATITUD": 4.7465292, "DIRECCIÓN": "CL 139 - KR 131 (E-O)", "NÚMERO_DE": "MT-20194000619861 Diciembre 13 de 2019", "VELOCIDADM": "30", "CORREDOR_P": "Calle 139", "VIA_SECUND": "TV 136", "SENTIDO": "(Oriente - Occidente)", "CALZADA": "Única", "CARRILES": "2", "LOCALIDAD": "Suba", "INFRACCION": "C.29 - C.14 - C.35 - D.02" }, "geometry": { "type": "Point", "coordinates": [ -74.1124386, 4.74652919984417 ] } },
{ "type": "Feature", "properties": { "FID": 8, "OBJECTID_1": 8, "ID_CÁMARA": "DEI-005/CAM-01", "NOMBRE_DEL": "KR 33 - CL 41 SUR (S-N)", "LONGITUD": -74.125872, "LATITUD": 4.587857, "DIRECCIÓN": "KR 33 - CL 41 SUR (S-N)", "NÚMERO_DE": "MT-20194000619861 Diciembre 13 de 2019", "VELOCIDADM": "30", "CORREDOR_P": "Av. Gaitán Cortés", "VIA_SECUND": "CL 41 Sur", "SENTIDO": "(Sur - Norte)", "CALZADA": "Única", "CARRILES": "2", "LOCALIDAD": "Rafael Uribe Uribe", "INFRACCION": "C.29 - C.14 - C.35 - D.02" }, "geometry": { "type": "Point", "coordinates": [ -74.125872, 4.58785699984934 ] } },
{ "type": "Feature", "properties": { "FID": 9, "OBJECTID_1": 9, "ID_CÁMARA": "DEI-005/CAM-02", "NOMBRE_DEL": "KR 33 - CL 41 SUR (N-S)", "LONGITUD": -74.125872, "LATITUD": 4.587857, "DIRECCIÓN": "KR 33 - CL 41 SUR (N-S)", "NÚMERO_DE": "MT-20194000619861 Diciembre 13 de 2019", "VELOCIDADM": "30", "CORREDOR_P": "Av. Gaitán Cortés", "VIA_SECUND": "CL 41 Sur", "SENTIDO": "(Norte - Sur)", "CALZADA": "Única", "CARRILES": "2", "LOCALIDAD": "Rafael Uribe Uribe", "INFRACCION": "C.29 - C.14 - C.35 - D.02" }, "geometry": { "type": "Point", "coordinates": [ -74.125872, 4.58785699984934 ] } },
{ "type": "Feature", "properties": { "FID": 10, "OBJECTID_1": 10, "ID_CÁMARA": "DEI-006/CAM-01", "NOMBRE_DEL": "AV BOYACA - AUTP. SUR (N-S) C. RAP", "LONGITUD": -74.145381, "LATITUD": 4.592948, "DIRECCIÓN": "AV BOYACÁ - DG 49 SUR (N-S)", "NÚMERO_DE": "MT-20194000641171 Diciembre 26 de 2019.", "VELOCIDADM": "50", "CORREDOR_P": "Av. Boyacá", "VIA_SECUND": "Autopista Sur", "SENTIDO": "(Norte - Sur)", "CALZADA": "Rápida", "CARRILES": "2", "LOCALIDAD": "Tunjuelito", "INFRACCION": "C.29 - C.14 - C.35 - D.02" }, "geometry": { "type": "Point", "coordinates": [ -74.145381, 4.59294799984918 ] } },
{ "type": "Feature", "properties": { "FID": 11, "OBJECTID_1": 11, "ID_CÁMARA": "DEI-006/CAM-02", "NOMBRE_DEL": "AV BOYACA - AUTP. SUR (S-N) C. RAP", "LONGITUD": -74.145308, "LATITUD": 4.592972, "DIRECCIÓN": "AV BOYACÁ - DG 49 SUR (S-N)", "NÚMERO_DE": "MT-20194000641171 Diciembre 26 de 2019.", "VELOCIDADM": "50", "CORREDOR_P": "Av. Boyacá", "VIA_SECUND": "Autopista Sur", "SENTIDO": "(Sur - Norte)", "CALZADA": "Rápida", "CARRILES": "4", "LOCALIDAD": "Tunjuelito", "INFRACCION": "C.29 - C.14 - C.35 - D.02" }, "geometry": { "type": "Point", "coordinates": [ -74.145308, 4.59297199984918 ] } },
{ "type": "Feature", "properties": { "FID": 12, "OBJECTID_1": 12, "ID_CÁMARA": "DEI-007/CAM-01", "NOMBRE_DEL": "AV BOYACA - CL 53 (N-S) C. LEN", "LONGITUD": -74.106976, "LATITUD": 4.670859, "DIRECCIÓN": "AV BOYACÁ - CL 53 (N-S)", "NÚMERO_DE": "MT-20194000641171 Diciembre 26 de 2019.", "VELOCIDADM": "50", "CORREDOR_P": "Av. Boyacá", "VIA_SECUND": "CL 53", "SENTIDO": "(Norte - Sur)", "CALZADA": "Rápida", "CARRILES": "2", "LOCALIDAD": "Engativá", "INFRACCION": "C.29" }, "geometry": { "type": "Point", "coordinates": [ -74.106976, 4.67085899984664 ] } },
{ "type": "Feature", "properties": { "FID": 13, "OBJECTID_1": 13, "ID_CÁMARA": "DEI-007/CAM-02", "NOMBRE_DEL": "AV BOYACA - CL 53 (S-N) C. LEN", "LONGITUD": -74.106668, "LATITUD": 4.671711, "DIRECCIÓN": "AV BOYACÁ - CL 52 (S-N)", "NÚMERO_DE": "MT-20194000641171 Diciembre 26 de 2019.", "VELOCIDADM": "50", "CORREDOR_P": "Av. Boyacá", "VIA_SECUND": "CL 53", "SENTIDO": "(Sur - Norte)", "CALZADA": "Rápida", "CARRILES": "2", "LOCALIDAD": "Engativá", "INFRACCION": "C.29" }, "geometry": { "type": "Point", "coordinates": [ -74.106668, 4.67171099984659 ] } },
{ "type": "Feature", "properties": { "FID": 14, "OBJECTID_1": 14, "ID_CÁMARA": "DEI-007/CAM-03", "NOMBRE_DEL": "AV BOYACA - CL 63D (S-N)", "LONGITUD": -74.102881, "LATITUD": 4.675944, "DIRECCIÓN": "AV BOYACÁ - CL 63D (S-N)", "NÚMERO_DE": "MT-20194000641171 Diciembre 26 de 2019.", "VELOCIDADM": "50", "CORREDOR_P": "Av. Boyacá", "VIA_SECUND": "CL 63D", "SENTIDO": "(Sur - Norte)", "CALZADA": "Lenta", "CARRILES": "2", "LOCALIDAD": "Engativá", "INFRACCION": "C.29" }, "geometry": { "type": "Point", "coordinates": [ -74.102881, 4.67594399984648 ] } },
{ "type": "Feature", "properties": { "FID": 15, "OBJECTID_1": 15, "ID_CÁMARA": "DEI-008/CAM-01", "NOMBRE_DEL": "CL 59 SUR - KR 78F (O-E)", "LONGITUD": -74.180026, "LATITUD": 4.60459, "DIRECCIÓN": "AV BOSA - KR 78F (O-E)", "NÚMERO_DE": "MT-20194000641171 Diciembre 26 de 2019.", "VELOCIDADM": "50", "CORREDOR_P": "Av. Bosa", "VIA_SECUND": "KR 78F", "SENTIDO": "(Occidente - Oriente)", "CALZADA": "Única", "CARRILES": "3", "LOCALIDAD": "Bosa", "INFRACCION": "C.29 - C.14 - C.35 - D.02" }, "geometry": { "type": "Point", "coordinates": [ -74.180026, 4.60458999984878 ] } },
{ "type": "Feature", "properties": { "FID": 16, "OBJECTID_1": 16, "ID_CÁMARA": "DEI-008/CAM-02", "NOMBRE_DEL": "CL 59 SUR - KR 78F (E-O)", "LONGITUD": -74.179862, "LATITUD": 4.604664, "DIRECCIÓN": "AV BOSA - KR 78F (E-O)", "NÚMERO_DE": "MT-20194000641171 Diciembre 26 de 2019.", "VELOCIDADM": "50", "CORREDOR_P": "Av. Bosa", "VIA_SECUND": "KR 78F", "SENTIDO": "(Oriente - Occidente)", "CALZADA": "Única", "CARRILES": "3", "LOCALIDAD": "Bosa", "INFRACCION": "C.29 - C.14 - C.35 - D.02" }, "geometry": { "type": "Point", "coordinates": [ -74.179862000401499, 4.60466399941222 ] } },
{ "type": "Feature", "properties": { "FID": 17, "OBJECTID_1": 17, "ID_CÁMARA": "DEI-009/CAM-01", "NOMBRE_DEL": "AV BOYACA - AV SUBA (N-S) C. RAP", "LONGITUD": -74.073829, "LATITUD": 4.722892, "DIRECCIÓN": "AV BOYACÁ - CL 131 (N-S)", "NÚMERO_DE": "MT-20194000641171 Diciembre 26 de 2019.", "VELOCIDADM": "50", "CORREDOR_P": "Av. Boyacá", "VIA_SECUND": "Av. Suba", "SENTIDO": "(Norte - Sur)", "CALZADA": "Rápida", "CARRILES": "5", "LOCALIDAD": "Suba", "INFRACCION": "C.29 - C.14 - C.35 - D.02" }, "geometry": { "type": "Point", "coordinates": [ -74.073829, 4.72289199984494 ] } },
{ "type": "Feature", "properties": { "FID": 18, "OBJECTID_1": 18, "ID_CÁMARA": "DEI-009/CAM-02", "NOMBRE_DEL": "AV BOYACA - AV SUBA (S-N)", "LONGITUD": -74.073843, "LATITUD": 4.722668, "DIRECCIÓN": "AV BOYACÁ - CL 131 (S-N)", "NÚMERO_DE": "MT-20194000641171 Diciembre 26 de 2019.", "VELOCIDADM": "50", "CORREDOR_P": "Av. Boyacá", "VIA_SECUND": "Av. Suba", "SENTIDO": "(Sur - Norte)", "CALZADA": "Única", "CARRILES": "5", "LOCALIDAD": "Suba", "INFRACCION": "C.29 - C.14 - C.35 - D.02" }, "geometry": { "type": "Point", "coordinates": [ -74.073843, 4.72266799984494 ] } },
{ "type": "Feature", "properties": { "FID": 19, "OBJECTID_1": 19, "ID_CÁMARA": "DEI-010/CAM-01", "NOMBRE_DEL": "AUTONORTE - CL 94 (N-S) C. RAP", "LONGITUD": -74.057933, "LATITUD": 4.683743, "DIRECCIÓN": "AUTP. NORTE - CL 95 (N-S)", "NÚMERO_DE": "MT-20194000641171 Diciembre 26 de 2019.", "VELOCIDADM": "60", "CORREDOR_P": "Autopista Norte", "VIA_SECUND": "CL 94", "SENTIDO": "(Norte - Sur)", "CALZADA": "Rápida", "CARRILES": "3", "LOCALIDAD": "Barrios Unidos", "INFRACCION": "C.29 - C.14 - C.35 - D.02" }, "geometry": { "type": "Point", "coordinates": [ -74.057933, 4.68374299984622 ] } },
{ "type": "Feature", "properties": { "FID": 20, "OBJECTID_1": 20, "ID_CÁMARA": "DEI-010/CAM-02", "NOMBRE_DEL": "AUTONORTE - CL 94 (N-S) C. LEN", "LONGITUD": -74.058104, "LATITUD": 4.683755, "DIRECCIÓN": "AUTP. NORTE - CL 95 (N-S)", "NÚMERO_DE": "MT-20194000641171 Diciembre 26 de 2019.", "VELOCIDADM": "60", "CORREDOR_P": "Autopista Norte", "VIA_SECUND": "CL 94", "SENTIDO": "(Norte - Sur)", "CALZADA": "Lenta", "CARRILES": "3", "LOCALIDAD": "Barrios Unidos", "INFRACCION": "C.29 - C.14 - C.35 - D.02" }, "geometry": { "type": "Point", "coordinates": [ -74.058104, 4.68375499984622 ] } },
{ "type": "Feature", "properties": { "FID": 21, "OBJECTID_1": 21, "ID_CÁMARA": "DEI-010/CAM-03", "NOMBRE_DEL": "AUTONORTE - CL 94 (S-N) CAM 3", "LONGITUD": -74.057286, "LATITUD": 4.684901, "DIRECCIÓN": "AUTP. NORTE - CL 97 (S-N)", "NÚMERO_DE": "MT-20194000641171 Diciembre 26 de 2019.", "VELOCIDADM": "60", "CORREDOR_P": "Autopista Norte", "VIA_SECUND": "CL 94", "SENTIDO": "(Sur - Norte)", "CALZADA": "Lenta", "CARRILES": "5", "LOCALIDAD": "Chapinero", "INFRACCION": "C.29 - C.14 - C.35 - D.02" }, "geometry": { "type": "Point", "coordinates": [ -74.057286, 4.68490099984618 ] } },
{ "type": "Feature", "properties": { "FID": 22, "OBJECTID_1": 22, "ID_CÁMARA": "DEI-010/CAM-04", "NOMBRE_DEL": "AUTONORTE - CL 94 (S-N) CAM 4", "LONGITUD": -74.057286, "LATITUD": 4.684901, "DIRECCIÓN": "AUTP. NORTE - CL 97 (S-N)", "NÚMERO_DE": "MT-20194000641171 Diciembre 26 de 2019.", "VELOCIDADM": "60", "CORREDOR_P": "Autopista Norte", "VIA_SECUND": "CL 94", "SENTIDO": "(Sur - Norte)", "CALZADA": "Rápida", "CARRILES": "2", "LOCALIDAD": "Chapinero", "INFRACCION": "C.29 - C.14 - C.35 - D.02" }, "geometry": { "type": "Point", "coordinates": [ -74.057286, 4.68490099984618 ] } },
{ "type": "Feature", "properties": { "FID": 23, "OBJECTID_1": 23, "ID_CÁMARA": "DEI-011/CAM-01", "NOMBRE_DEL": "AV CIUDAD DE CALI - AV CENTENARIO (S-N)", "LONGITUD": -74.138196, "LATITUD": 4.657056, "DIRECCIÓN": "AV CIUDAD DE CALI - CL 15A (S-N)", "NÚMERO_DE": "MT-20194000641171 Diciembre 26 de 2019.", "VELOCIDADM": "50", "CORREDOR_P": "Av. Ciudad de Cali", "VIA_SECUND": "Av. Centenario", "SENTIDO": "(Sur - Norte)", "CALZADA": "Única", "CARRILES": "3", "LOCALIDAD": "Kennedy", "INFRACCION": "C.29 - C.14 - C.35 - D.02" }, "geometry": { "type": "Point", "coordinates": [ -74.138196, 4.65705599984709 ] } },
{ "type": "Feature", "properties": { "FID": 24, "OBJECTID_1": 24, "ID_CÁMARA": "DEI-011/CAM-02", "NOMBRE_DEL": "AV CIUDAD DE CALI - AV CENTENARIO (N-S)", "LONGITUD": -74.138196, "LATITUD": 4.657056, "DIRECCIÓN": "AV CIUDAD DE CALI - CL 15A (N-S)", "NÚMERO_DE": "MT-20194000641171 Diciembre 26 de 2019.", "VELOCIDADM": "50", "CORREDOR_P": "Av. Ciudad de Cali", "VIA_SECUND": "Av. Centenario", "SENTIDO": "(Norte - Sur)", "CALZADA": "Única", "CARRILES": "3", "LOCALIDAD": "Kennedy", "INFRACCION": "C.29 - C.14 - C.35 - D.02" }, "geometry": { "type": "Point", "coordinates": [ -74.138196, 4.65705599984709 ] } },
{ "type": "Feature", "properties": { "FID": 25, "OBJECTID_1": 25, "ID_CÁMARA": "DEI-012/CAM-01", "NOMBRE_DEL": "NQS - AV AMERICAS (N-S)", "LONGITUD": -74.085441, "LATITUD": 4.62201, "DIRECCIÓN": "NQS - CL 22 (N-S)", "NÚMERO_DE": "MT-20194000641171 Diciembre 26 de 2019.", "VELOCIDADM": "50", "CORREDOR_P": "Av. NQS", "VIA_SECUND": "Av. Américas", "SENTIDO": "(Norte - Sur)", "CALZADA": "Única", "CARRILES": "5", "LOCALIDAD": "Puente Aranda", "INFRACCION": "C.29 - C.14 - C.35 - D.02" }, "geometry": { "type": "Point", "coordinates": [ -74.085441, 4.62200999984822 ] } },
{ "type": "Feature", "properties": { "FID": 26, "OBJECTID_1": 26, "ID_CÁMARA": "DEI-012/CAM-02", "NOMBRE_DEL": "NQS - AV AMERICAS (S-N)", "LONGITUD": -74.0855444, "LATITUD": 4.62198, "DIRECCIÓN": "NQS - CL 22 (S-N)", "NÚMERO_DE": "MT-20194000641171 Diciembre 26 de 2019.", "VELOCIDADM": "50", "CORREDOR_P": "Av. NQS", "VIA_SECUND": "Av. Américas", "SENTIDO": "(Sur - Norte)", "CALZADA": "Única", "CARRILES": "5", "LOCALIDAD": "Puente Aranda", "INFRACCION": "C.29 - C.14 - C.35 - D.02" }, "geometry": { "type": "Point", "coordinates": [ -74.0855444, 4.62197999984823 ] } },
{ "type": "Feature", "properties": { "FID": 27, "OBJECTID_1": 27, "ID_CÁMARA": "DEI-013/CAM-01", "NOMBRE_DEL": "AC 80 - KR 102 (E-O) C. RAP", "LONGITUD": -74.114374, "LATITUD": 4.712027, "DIRECCIÓN": "AC 80 - KR 102 (E-O)", "NÚMERO_DE": "MT-20194000641171 Diciembre 26 de 2019.", "VELOCIDADM": "50", "CORREDOR_P": "Av. Calle 80", "VIA_SECUND": "KR 102", "SENTIDO": "(Oriente - Occidente)", "CALZADA": "Rápida", "CARRILES": "2", "LOCALIDAD": "Engativá", "INFRACCION": "C.29 - C.14 - C.35 - D.02" }, "geometry": { "type": "Point", "coordinates": [ -74.114374, 4.7120269998453 ] } },
{ "type": "Feature", "properties": { "FID": 28, "OBJECTID_1": 28, "ID_CÁMARA": "DEI-013/CAM-02", "NOMBRE_DEL": "AC 80 - KR 102 (O-E) C. RAP", "LONGITUD": -74.114011, "LATITUD": 4.711927, "DIRECCIÓN": "AC 80 - KR 102 (O-E)", "NÚMERO_DE": "MT-20194000641171 Diciembre 26 de 2019.", "VELOCIDADM": "50", "CORREDOR_P": "Av. Calle 80", "VIA_SECUND": "KR 102", "SENTIDO": "(Occidente - Oriente)", "CALZADA": "Rápida", "CARRILES": "2", "LOCALIDAD": "Engativá", "INFRACCION": "C.29 - C.14 - C.35 - D.02" }, "geometry": { "type": "Point", "coordinates": [ -74.114011, 4.7119269998453 ] } },
{ "type": "Feature", "properties": { "FID": 29, "OBJECTID_1": 29, "ID_CÁMARA": "DEI-014/CAM-01", "NOMBRE_DEL": "AV 1 DE MAYO - CL 45 SUR (S-N)", "LONGITUD": -74.164796, "LATITUD": 4.614278, "DIRECCIÓN": "AV 1 DE MAYO - CL 45 SUR (S-N)", "NÚMERO_DE": "MT-20194000641171 Diciembre 26 de 2019.", "VELOCIDADM": "40", "CORREDOR_P": "Av. Primero de Mayo", "VIA_SECUND": "CL 45 Sur", "SENTIDO": "(Sur - Norte)", "CALZADA": "Única", "CARRILES": "3", "LOCALIDAD": "Kennedy", "INFRACCION": "D.04 - D.02 - C.14 - C.35" }, "geometry": { "type": "Point", "coordinates": [ -74.164796, 4.61427799984848 ] } },
{ "type": "Feature", "properties": { "FID": 30, "OBJECTID_1": 30, "ID_CÁMARA": "DEI-014/CAM-02", "NOMBRE_DEL": "AV 1 DE MAYO - CL 45 SUR (N-S)", "LONGITUD": -74.164117, "LATITUD": 4.614665, "DIRECCIÓN": "AV 1 DE MAYO - CL 45 SUR (N-S)", "NÚMERO_DE": "MT-20194000641171 Diciembre 26 de 2019.", "VELOCIDADM": "40", "CORREDOR_P": "Av. Primero de Mayo", "VIA_SECUND": "CL 45 Sur", "SENTIDO": "(Norte - Sur)", "CALZADA": "Única", "CARRILES": "3", "LOCALIDAD": "Kennedy", "INFRACCION": "D.04 - D.02 - C.14 - C.35" }, "geometry": { "type": "Point", "coordinates": [ -74.164117, 4.61466499984846 ] } },
{ "type": "Feature", "properties": { "FID": 31, "OBJECTID_1": 31, "ID_CÁMARA": "DEI-015/CAM-01", "NOMBRE_DEL": "AV CIUDAD DE CALI - CL 133A (N-S)", "LONGITUD": -74.099365, "LATITUD": 4.739127, "DIRECCIÓN": "AV CIUDAD DE CALI - CL 135A (N-S)", "NÚMERO_DE": "MT-20194000641171 Diciembre 26 de 2019.", "VELOCIDADM": "30", "CORREDOR_P": "Av. Ciudad de Cali", "VIA_SECUND": "CL 133 A", "SENTIDO": "(Norte - Sur)", "CALZADA": "Única", "CARRILES": "3", "LOCALIDAD": "Suba", "INFRACCION": "D.04 - D.02 - C.14 - C.35" }, "geometry": { "type": "Point", "coordinates": [ -74.099365, 4.73912699984441 ] } },
{ "type": "Feature", "properties": { "FID": 32, "OBJECTID_1": 32, "ID_CÁMARA": "DEI-015/CAM-02", "NOMBRE_DEL": "AV CIUDAD DE CALI - CL 133A (S-N)", "LONGITUD": -74.099386, "LATITUD": 4.738997, "DIRECCIÓN": "AV CIUDAD DE CALI - CL 135A (S-N)", "NÚMERO_DE": "MT-20194000641171 Diciembre 26 de 2019.", "VELOCIDADM": "30", "CORREDOR_P": "Av. Ciudad de Cali", "VIA_SECUND": "CL 133 A", "SENTIDO": "(Sur - Norte)", "CALZADA": "Única", "CARRILES": "3", "LOCALIDAD": "Suba", "INFRACCION": "D.04 - D.02 - C.14 - C.35" }, "geometry": { "type": "Point", "coordinates": [ -74.099386, 4.73899699984443 ] } },
{ "type": "Feature", "properties": { "FID": 33, "OBJECTID_1": 33, "ID_CÁMARA": "DEI-016/CAM-01", "NOMBRE_DEL": "NQS - CL 59 (N-S) C. RAP", "LONGITUD": -74.078438, "LATITUD": 4.64907, "DIRECCIÓN": "NQS - CL 58A (N-S)", "NÚMERO_DE": "MT-No. 2024000013091 Enero 20 de 2020", "VELOCIDADM": "50", "CORREDOR_P": "Av. NQS", "VIA_SECUND": "CL 59r", "SENTIDO": "(Norte - Sur)", "CALZADA": "Única", "CARRILES": "2", "LOCALIDAD": "Teusaquillo", "INFRACCION": "C.29 - C.14 - C.35 - D.02" }, "geometry": { "type": "Point", "coordinates": [ -74.078438, 4.64906999984735 ] } },
{ "type": "Feature", "properties": { "FID": 34, "OBJECTID_1": 34, "ID_CÁMARA": "DEI-016/CAM-02", "NOMBRE_DEL": "NQS - CL 59 (S-N) C. LEN", "LONGITUD": -74.078201, "LATITUD": 4.649063, "DIRECCIÓN": "NQS - CL 58A (S-N)", "NÚMERO_DE": "MT-No. 2024000013091 Enero 20 de 2020", "VELOCIDADM": "50", "CORREDOR_P": "Av. NQS", "VIA_SECUND": "CL 59", "SENTIDO": "(Sur - Norte)", "CALZADA": "Única", "CARRILES": "4", "LOCALIDAD": "Teusaquillo", "INFRACCION": "C.29 - C.14 - C.35 - D.02" }, "geometry": { "type": "Point", "coordinates": [ -74.078201, 4.64906299984735 ] } },
{ "type": "Feature", "properties": { "FID": 35, "OBJECTID_1": 35, "ID_CÁMARA": "DEI-016/CAM-03", "NOMBRE_DEL": "NQS - CL 59 (N-S) C. LEN", "LONGITUD": -74.078818, "LATITUD": 4.649535, "DIRECCIÓN": "NQS - CL 58A (N-S)", "NÚMERO_DE": "MT-No. 2024000013091 Enero 20 de 2020", "VELOCIDADM": "50", "CORREDOR_P": "Av. NQS", "VIA_SECUND": "CL 59", "SENTIDO": "(Norte - Sur)", "CALZADA": "Única", "CARRILES": "3", "LOCALIDAD": "Teusaquillo", "INFRACCION": "C.29 - C.14 - C.35 - D.02" }, "geometry": { "type": "Point", "coordinates": [ -74.078818, 4.64953499984732 ] } },
{ "type": "Feature", "properties": { "FID": 36, "OBJECTID_1": 36, "ID_CÁMARA": "DEI-017/CAM-01", "NOMBRE_DEL": "AUTONORTE - CL 100 (N-S) C. LEN", "LONGITUD": -74.057123, "LATITUD": 4.68957, "DIRECCIÓN": "AUTP. NORTE - CL 102 A (N-S)", "NÚMERO_DE": "MT-No. 2024000013091 Enero 20 de 2020", "VELOCIDADM": "60", "CORREDOR_P": "Autopista Norte", "VIA_SECUND": "CL 100", "SENTIDO": "(Norte - Sur)", "CALZADA": "Lenta", "CARRILES": "3", "LOCALIDAD": "Suba", "INFRACCION": "C.29 - C.14 - C.35 - D.02" }, "geometry": { "type": "Point", "coordinates": [ -74.057123, 4.68956999984602 ] } },
{ "type": "Feature", "properties": { "FID": 37, "OBJECTID_1": 37, "ID_CÁMARA": "DEI-017/CAM-02", "NOMBRE_DEL": "AUTONORTE - CL 100 (N-S) C. RAP", "LONGITUD": -74.057024, "LATITUD": 4.689558, "DIRECCIÓN": "AUTP. NORTE - CL 102 A (N-S)", "NÚMERO_DE": "MT-No. 2024000013091 Enero 20 de 2020", "VELOCIDADM": "60", "CORREDOR_P": "Autopista Norte", "VIA_SECUND": "CL 100", "SENTIDO": "(Norte - Sur)", "CALZADA": "Rápida", "CARRILES": "3", "LOCALIDAD": "Suba", "INFRACCION": "C.29 - C.14 - C.35 - D.02" }, "geometry": { "type": "Point", "coordinates": [ -74.057024, 4.68955799984603 ] } },
{ "type": "Feature", "properties": { "FID": 38, "OBJECTID_1": 38, "ID_CÁMARA": "DEI-017/CAM-03", "NOMBRE_DEL": "AUTONORTE - CL 100 (S-N) C. RAP", "LONGITUD": -74.056519, "LATITUD": 4.689808, "DIRECCIÓN": "AUTP. NORTE - CL 103 (S-N)", "NÚMERO_DE": "MT-No. 2024000013091 Enero 20 de 2020", "VELOCIDADM": "60", "CORREDOR_P": "Autopista Norte", "VIA_SECUND": "CL 100", "SENTIDO": "(Sur - Norte)", "CALZADA": "Rápida", "CARRILES": "3", "LOCALIDAD": "Usaquén", "INFRACCION": "C.29 - C.14 - C.35 - D.02" }, "geometry": { "type": "Point", "coordinates": [ -74.056519, 4.68980799984601 ] } },
{ "type": "Feature", "properties": { "FID": 39, "OBJECTID_1": 39, "ID_CÁMARA": "DEI-017/CAM-04", "NOMBRE_DEL": "AUTONORTE - CL 100 (S-N) C. LEN", "LONGITUD": -74.056347, "LATITUD": 4.689784, "DIRECCIÓN": "AUTP. NORTE - CL 103 (S-N)", "NÚMERO_DE": "MT-No. 2024000013091 Enero 20 de 2020", "VELOCIDADM": "60", "CORREDOR_P": "Autopista Norte", "VIA_SECUND": "CL 100", "SENTIDO": "(Sur - Norte)", "CALZADA": "Lenta", "CARRILES": "3", "LOCALIDAD": "Usaquén", "INFRACCION": "C.29 - C.14 - C.35 - D.02" }, "geometry": { "type": "Point", "coordinates": [ -74.056347, 4.68978399984602 ] } },
{ "type": "Feature", "properties": { "FID": 40, "OBJECTID_1": 40, "ID_CÁMARA": "DEI-018/CAM-01", "NOMBRE_DEL": "CL 11 SUR - AK 10 (N-S)", "LONGITUD": -74.091327, "LATITUD": 4.580441, "DIRECCIÓN": "AK 10 - CL 13 SUR (N-S)", "NÚMERO_DE": "MT-No. 2024000013091 Enero 20 de 2020", "VELOCIDADM": "30", "CORREDOR_P": "Av. Carrera 10", "VIA_SECUND": "CL 11 Sur", "SENTIDO": "(Norte - Sur)", "CALZADA": "Única", "CARRILES": "2", "LOCALIDAD": "Antonio Nariño", "INFRACCION": "C.29 - C.14 - C.35 - D.02" }, "geometry": { "type": "Point", "coordinates": [ -74.091327, 4.58044099984958 ] } },
{ "type": "Feature", "properties": { "FID": 41, "OBJECTID_1": 41, "ID_CÁMARA": "DEI-018/CAM-02", "NOMBRE_DEL": "CL 11 SUR - AK 10 (S-N)", "LONGITUD": -74.091083, "LATITUD": 4.580292, "DIRECCIÓN": "AK 10 - CL 13 SUR (S-N)", "NÚMERO_DE": "MT-No. 2024000013091 Enero 20 de 2020", "VELOCIDADM": "30", "CORREDOR_P": "Av. Carrera 10", "VIA_SECUND": "CL 11 Sur", "SENTIDO": "(Sur - Norte)", "CALZADA": "Única", "CARRILES": "2", "LOCALIDAD": "San Cristóbal", "INFRACCION": "C.29 - C.14 - C.35 - D.02" }, "geometry": { "type": "Point", "coordinates": [ -74.091083, 4.58029199984958 ] } },
{ "type": "Feature", "properties": { "FID": 42, "OBJECTID_1": 42, "ID_CÁMARA": "DEI-019/CAM-01", "NOMBRE_DEL": "NQS - AC 72 (N-S)", "LONGITUD": -74.074036, "LATITUD": 4.667425, "DIRECCIÓN": "NQS - AC 72 (N-S)", "NÚMERO_DE": "MT-No. 2024000013091 Enero 20 de 2020", "VELOCIDADM": "50", "CORREDOR_P": "Av. NQS", "VIA_SECUND": "AC 72", "SENTIDO": "(Norte - Sur)", "CALZADA": "Única", "CARRILES": "4", "LOCALIDAD": "Barrios Unidos", "INFRACCION": "C.29 - C.14 - C.35 - D.02" }, "geometry": { "type": "Point", "coordinates": [ -74.074036, 4.66742499984675 ] } },
{ "type": "Feature", "properties": { "FID": 43, "OBJECTID_1": 43, "ID_CÁMARA": "DEI-019/CAM-02", "NOMBRE_DEL": "NQS - AC 72 (S-N)", "LONGITUD": -74.072153, "LATITUD": 4.668773, "DIRECCIÓN": "NQS - AC 73 (S-N)", "NÚMERO_DE": "MT-No. 2024000013091 Enero 20 de 2020", "VELOCIDADM": "50", "CORREDOR_P": "Av. NQS", "VIA_SECUND": "AC 72", "SENTIDO": "(Sur - Norte)", "CALZADA": "Única", "CARRILES": "4", "LOCALIDAD": "Barrios Unidos", "INFRACCION": "C.29 - C.14 - C.35 - D.02" }, "geometry": { "type": "Point", "coordinates": [ -74.072153, 4.66877299984671 ] } },
{ "type": "Feature", "properties": { "FID": 44, "OBJECTID_1": 44, "ID_CÁMARA": "DEI-020/CAM-01", "NOMBRE_DEL": "AV CIUDAD DE CALI - AC 80 (N-S)", "LONGITUD": -74.102772, "LATITUD": 4.700817, "DIRECCIÓN": "AK 86 - CL 75A (S-N)", "NÚMERO_DE": "MT-No. 2024000013091 Enero 20 de 2020", "VELOCIDADM": "50", "CORREDOR_P": "Av. Ciudad de Cali", "VIA_SECUND": "AC 80", "SENTIDO": "(Norte - Sur)", "CALZADA": "Única", "CARRILES": "3", "LOCALIDAD": "Engativá", "INFRACCION": "C.29 - C.14 - C.35 - D.02" }, "geometry": { "type": "Point", "coordinates": [ -74.102772, 4.70081699984567 ] } },
{ "type": "Feature", "properties": { "FID": 45, "OBJECTID_1": 45, "ID_CÁMARA": "DEI-020/CAM-02", "NOMBRE_DEL": "AV CIUDAD DE CALI - AC 80 (S-N)", "LONGITUD": -74.102949, "LATITUD": 4.700493, "DIRECCIÓN": "AK 86 - CL 76 (N-S)", "NÚMERO_DE": "MT-No. 2024000013091 Enero 20 de 2020", "VELOCIDADM": "50", "CORREDOR_P": "Av. Ciudad de Cali", "VIA_SECUND": "AC 80", "SENTIDO": "(Sur - Norte)", "CALZADA": "Única", "CARRILES": "3", "LOCALIDAD": "Engativá", "INFRACCION": "C.29 - C.14 - C.35 - D.02" }, "geometry": { "type": "Point", "coordinates": [ -74.102949, 4.70049299984567 ] } },
{ "type": "Feature", "properties": { "FID": 46, "OBJECTID_1": 46, "ID_CÁMARA": "DEI-021/CAM-01", "NOMBRE_DEL": "AV CARACAS - CL 60 (S-N)", "LONGITUD": -74.064996, "LATITUD": 4.646722, "DIRECCIÓN": "AV CARACAS - CL 59A (S-N)", "NÚMERO_DE": "MT-No. 2024000013091 Enero 20 de 2020", "VELOCIDADM": "50", "CORREDOR_P": "Av. Caracas", "VIA_SECUND": "CL 60", "SENTIDO": "(Sur - Norte)", "CALZADA": "Única", "CARRILES": "2", "LOCALIDAD": "Chapinero", "INFRACCION": "D.04 - C.29 - C.14 - C.35 - D.02" }, "geometry": { "type": "Point", "coordinates": [ -74.064996, 4.64672199984742 ] } },
{ "type": "Feature", "properties": { "FID": 47, "OBJECTID_1": 47, "ID_CÁMARA": "DEI-021/CAM-02", "NOMBRE_DEL": "AV CARACAS - CL 60 (N-S)", "LONGITUD": -74.065202, "LATITUD": 4.647455, "DIRECCIÓN": "AV CARACAS - CL 59A (N-S)", "NÚMERO_DE": "MT-No. 2024000013091 Enero 20 de 2020", "VELOCIDADM": "50", "CORREDOR_P": "Av. Caracas", "VIA_SECUND": "CL 60", "SENTIDO": "(Norte - Sur)", "CALZADA": "Única", "CARRILES": "2", "LOCALIDAD": "Teusaquillo", "INFRACCION": "D.04 - C.29 - C.14 - C.35 - D.02" }, "geometry": { "type": "Point", "coordinates": [ -74.065202, 4.6474549998474 ] } },
{ "type": "Feature", "properties": { "FID": 48, "OBJECTID_1": 48, "ID_CÁMARA": "DEI-022/CAM-01", "NOMBRE_DEL": "AUTONORTE - CL 170 (N-S) CAM 1", "LONGITUD": -74.046951, "LATITUD": 4.750689, "DIRECCIÓN": "AUTP. NORTE - CL 169 (N-S)", "NÚMERO_DE": "MT-No. 2024000013091 Enero 20 de 2020", "VELOCIDADM": "60", "CORREDOR_P": "Autopista Norte", "VIA_SECUND": "CL 170", "SENTIDO": "(Norte - Sur)", "CALZADA": "Lenta", "CARRILES": "2", "LOCALIDAD": "Suba", "INFRACCION": "C.29 - C.14 - C.35 - D.02" }, "geometry": { "type": "Point", "coordinates": [ -74.046951, 4.75068899984402 ] } },
{ "type": "Feature", "properties": { "FID": 49, "OBJECTID_1": 49, "ID_CÁMARA": "DEI-022/CAM-02", "NOMBRE_DEL": "AUTONORTE - CL 170 (N-S) CAM 2", "LONGITUD": -74.046951, "LATITUD": 4.750689, "DIRECCIÓN": "AUTP. NORTE - CL 169 (N-S)", "NÚMERO_DE": "MT-No. 2024000013091 Enero 20 de 2020", "VELOCIDADM": "60", "CORREDOR_P": "Autopista Norte", "VIA_SECUND": "CL 170", "SENTIDO": "(Norte - Sur)", "CALZADA": "Rápida", "CARRILES": "3", "LOCALIDAD": "Suba", "INFRACCION": "C.29 - C.14 - C.35 - D.02" }, "geometry": { "type": "Point", "coordinates": [ -74.046951, 4.75068899984402 ] } },
{ "type": "Feature", "properties": { "FID": 50, "OBJECTID_1": 50, "ID_CÁMARA": "DEI-022/CAM-03", "NOMBRE_DEL": "AUTONORTE - CL 170 (S-N) CAM 3", "LONGITUD": -74.045449, "LATITUD": 4.755324, "DIRECCIÓN": "AUTP. NORTE - CL 172A (S-N)", "NÚMERO_DE": "MT-No. 2024000013091 Enero 20 de 2020", "VELOCIDADM": "60", "CORREDOR_P": "Autopista Norte", "VIA_SECUND": "CL 170", "SENTIDO": "(Sur - Norte)", "CALZADA": "Lenta", "CARRILES": "3", "LOCALIDAD": "Usaquén", "INFRACCION": "C.29 - C.14 - C.35 - D.02" }, "geometry": { "type": "Point", "coordinates": [ -74.045449, 4.75532399984388 ] } },
{ "type": "Feature", "properties": { "FID": 51, "OBJECTID_1": 51, "ID_CÁMARA": "DEI-022/CAM-04", "NOMBRE_DEL": "AUTONORTE - CL 170 (S-N) CAM 4", "LONGITUD": -74.045449, "LATITUD": 4.755324, "DIRECCIÓN": "AUTP. NORTE - CL 172A (S-N)", "NÚMERO_DE": "MT-No. 2024000013091 Enero 20 de 2020", "VELOCIDADM": "60", "CORREDOR_P": "Autopista Norte", "VIA_SECUND": "CL 170", "SENTIDO": "(Sur - Norte)", "CALZADA": "Rápida", "CARRILES": "3", "LOCALIDAD": "Usaquén", "INFRACCION": "C.29 - C.14 - C.35 - D.02" }, "geometry": { "type": "Point", "coordinates": [ -74.045449, 4.75532399984388 ] } },
{ "type": "Feature", "properties": { "FID": 52, "OBJECTID_1": 52, "ID_CÁMARA": "DEI-023/CAM-01", "NOMBRE_DEL": "AV BOYACA - AC 26 (N-S) C. RAP", "LONGITUD": -74.113866, "LATITUD": 4.663929, "DIRECCIÓN": "AV BOYACÁ - CL 24C (N-S)", "NÚMERO_DE": "MT-No. 2024000013091 Enero 20 de 2020", "VELOCIDADM": "50", "CORREDOR_P": "Av. Boyacá", "VIA_SECUND": "AC 26", "SENTIDO": "(Norte - Sur)", "CALZADA": "Rápida", "CARRILES": "2", "LOCALIDAD": "Fontibón", "INFRACCION": "C.29 - C.14 - C.35 - D.02" }, "geometry": { "type": "Point", "coordinates": [ -74.113866, 4.66392899984687 ] } },
{ "type": "Feature", "properties": { "FID": 53, "OBJECTID_1": 53, "ID_CÁMARA": "DEI-023/CAM-02", "NOMBRE_DEL": "AV BOYACA - AC 26 (S-N) C. RAP", "LONGITUD": -74.113855, "LATITUD": 4.663862, "DIRECCIÓN": "AV BOYACÁ - CL 24C (S-N)", "NÚMERO_DE": "MT-No. 2024000013091 Enero 20 de 2020", "VELOCIDADM": "50", "CORREDOR_P": "Av. Boyacá", "VIA_SECUND": "AC 26", "SENTIDO": "(Sur - Norte)", "CALZADA": "Rápida", "CARRILES": "2", "LOCALIDAD": "Fontibón", "INFRACCION": "C.29 - C.14 - C.35 - D.02" }, "geometry": { "type": "Point", "coordinates": [ -74.113855, 4.66386199984687 ] } },
{ "type": "Feature", "properties": { "FID": 54, "OBJECTID_1": 54, "ID_CÁMARA": "DEI-024/CAM-01", "NOMBRE_DEL": "ROTONDA BANDERAS (O-E)", "LONGITUD": -74.145344, "LATITUD": 4.630949, "DIRECCIÓN": "AV AMÉRICAS - KR 78 (O-E)", "NÚMERO_DE": "MT-No. 2024000013091 Enero 20 de 2020", "VELOCIDADM": "50", "CORREDOR_P": "Av. Américas", "VIA_SECUND": "Rotonda Banderas", "SENTIDO": "(Occidente - Oriente)", "CALZADA": "Única", "CARRILES": "5", "LOCALIDAD": "Kennedy", "INFRACCION": "C.29 - C.14 - C.35 - D.02" }, "geometry": { "type": "Point", "coordinates": [ -74.145344, 4.63094899984795 ] } },
{ "type": "Feature", "properties": { "FID": 55, "OBJECTID_1": 55, "ID_CÁMARA": "DEI-024/CAM-02", "NOMBRE_DEL": "ROTONDA BANDERAS (E-O)", "LONGITUD": -74.15041, "LATITUD": 4.633058, "DIRECCIÓN": "AV AMÉRICAS - TV 78C (E-O)", "NÚMERO_DE": "MT-No. 2024000013091 Enero 20 de 2020", "VELOCIDADM": "50", "CORREDOR_P": "Av. Américas", "VIA_SECUND": "Rotonda Banderas", "SENTIDO": "(Oriente - Occidente)", "CALZADA": "Única", "CARRILES": "5", "LOCALIDAD": "Kennedy", "INFRACCION": "C.29 - C.14 - C.35 - D.02" }, "geometry": { "type": "Point", "coordinates": [ -74.15041, 4.63305799984788 ] } },
{ "type": "Feature", "properties": { "FID": 56, "OBJECTID_1": 56, "ID_CÁMARA": "DEI-025/CAM-01", "NOMBRE_DEL": "AUTONORTE - CL 183 (N-S) CAM 1", "LONGITUD": -74.044827, "LATITUD": 4.761777, "DIRECCIÓN": "AUTP. NORTE - CL 183 (N-S)", "NÚMERO_DE": "MT-No. 2024000013091 Enero 20 de 2020", "VELOCIDADM": "60", "CORREDOR_P": "Autopista Norte", "VIA_SECUND": "CL 183", "SENTIDO": "(Norte - Sur)", "CALZADA": "Lenta", "CARRILES": "3", "LOCALIDAD": "Suba", "INFRACCION": "C.29 - C.14 - C.35 - D.02" }, "geometry": { "type": "Point", "coordinates": [ -74.044827, 4.76177699984368 ] } },
{ "type": "Feature", "properties": { "FID": 57, "OBJECTID_1": 57, "ID_CÁMARA": "DEI-025/CAM-02", "NOMBRE_DEL": "AUTONORTE - CL 183 (N-S) CAM 2", "LONGITUD": -74.044827, "LATITUD": 4.761777, "DIRECCIÓN": "AUTP. NORTE - CL 183 (N-S)", "NÚMERO_DE": "MT-No. 2024000013091 Enero 20 de 2020", "VELOCIDADM": "60", "CORREDOR_P": "Autopista Norte", "VIA_SECUND": "CL 183", "SENTIDO": "(Norte - Sur)", "CALZADA": "Rápida", "CARRILES": "3", "LOCALIDAD": "Suba", "INFRACCION": "C.29 - C.14 - C.35 - D.02" }, "geometry": { "type": "Point", "coordinates": [ -74.044827, 4.76177699984368 ] } },
{ "type": "Feature", "properties": { "FID": 58, "OBJECTID_1": 58, "ID_CÁMARA": "DEI-025/CAM-03", "NOMBRE_DEL": "AUTONORTE - CL 183 (S-N) CAM 3", "LONGITUD": -74.044596, "LATITUD": 4.761745, "DIRECCIÓN": "AUTP. NORTE - CL 183A (S-N)", "NÚMERO_DE": "MT-No. 2024000013091 Enero 20 de 2020", "VELOCIDADM": "60", "CORREDOR_P": "Autopista Norte", "VIA_SECUND": "CL 183", "SENTIDO": "(Sur - Norte)", "CALZADA": "Lenta", "CARRILES": "3", "LOCALIDAD": "Usaquén", "INFRACCION": "C.29 - C.14 - C.35 - D.02" }, "geometry": { "type": "Point", "coordinates": [ -74.044596, 4.76174499984368 ] } },
{ "type": "Feature", "properties": { "FID": 59, "OBJECTID_1": 59, "ID_CÁMARA": "DEI-025/CAM-04", "NOMBRE_DEL": "AUTONORTE - CL 183 (S-N) CAM 4", "LONGITUD": -74.044596, "LATITUD": 4.761745, "DIRECCIÓN": "AUTP. NORTE - CL 183A (S-N)", "NÚMERO_DE": "MT-No. 2024000013091 Enero 20 de 2020", "VELOCIDADM": "60", "CORREDOR_P": "Autopista Norte", "VIA_SECUND": "CL 183", "SENTIDO": "(Sur - Norte)", "CALZADA": "Rápida", "CARRILES": "3", "LOCALIDAD": "Usaquén", "INFRACCION": "C.29 - C.14 - C.35 - D.02" }, "geometry": { "type": "Point", "coordinates": [ -74.044596, 4.76174499984368 ] } },
{ "type": "Feature", "properties": { "FID": 60, "OBJECTID_1": 60, "ID_CÁMARA": "DEI-026/CAM-01", "NOMBRE_DEL": "AC 61 SUR - KR 32 (O-E)", "LONGITUD": -74.149282, "LATITUD": 4.57081, "DIRECCIÓN": "AV VILLAVICENCIO - KR 32 (O-E)", "NÚMERO_DE": "MT. No.: 20204000111021 Marzo 27 de 2020", "VELOCIDADM": "50", "CORREDOR_P": "Av Villavicencio", "VIA_SECUND": "KR 32", "SENTIDO": "(Occidente - Oriente)", "CALZADA": "Única", "CARRILES": "3", "LOCALIDAD": "Ciudad Bolívar", "INFRACCION": "D.04 - C.35 - D.02" }, "geometry": { "type": "Point", "coordinates": [ -74.149281999758799, 4.57080999992255 ] } },
{ "type": "Feature", "properties": { "FID": 61, "OBJECTID_1": 61, "ID_CÁMARA": "DEI-026/CAM-02", "NOMBRE_DEL": "AC 61 SUR - KR 32 (E-O)", "LONGITUD": -74.148791, "LATITUD": 4.570567, "DIRECCIÓN": "AV VILLAVICENCIO - KR 28 (E-O)", "NÚMERO_DE": "MT. No.: 20204000111021 Marzo 27 de 2020", "VELOCIDADM": "50", "CORREDOR_P": "Av Villavicencio", "VIA_SECUND": "KR 32", "SENTIDO": "(Oriente - Occidente)", "CALZADA": "Única", "CARRILES": "3", "LOCALIDAD": "Ciudad Bolívar", "INFRACCION": "D.04 - C.35 - D.02" }, "geometry": { "type": "Point", "coordinates": [ -74.148791000387504, 4.57056700026097 ] } },
{ "type": "Feature", "properties": { "FID": 62, "OBJECTID_1": 62, "ID_CÁMARA": "DEI-027/CAM-01", "NOMBRE_DEL": "AK 10A - CL 19 (S-N)", "LONGITUD": -74.073989, "LATITUD": 4.606397, "DIRECCIÓN": "AK 10 - CL 18 (S-N)", "NÚMERO_DE": "MT. No.: 20204000111021 Marzo 27 de 2020", "VELOCIDADM": "50", "CORREDOR_P": "Av. Carrera 10", "VIA_SECUND": "CL 19", "SENTIDO": "(Sur - Norte)", "CALZADA": "Única", "CARRILES": "2", "LOCALIDAD": "Santa Fe", "INFRACCION": "C.29 - D.04 - C.35 - D.02" }, "geometry": { "type": "Point", "coordinates": [ -74.073988999941193, 4.60639699943271 ] } },
{ "type": "Feature", "properties": { "FID": 63, "OBJECTID_1": 63, "ID_CÁMARA": "DEI-027/CAM-02", "NOMBRE_DEL": "AK 10A - CL 19 (N-S)", "LONGITUD": -74.07374, "LATITUD": 4.607345, "DIRECCIÓN": "AK 10 - CL 19 (N-S)", "NÚMERO_DE": "MT. No.: 20204000111021 Marzo 27 de 2020", "VELOCIDADM": "50", "CORREDOR_P": "Av. Carrera 10", "VIA_SECUND": "CL 19", "SENTIDO": "(Norte - Sur)", "CALZADA": "Única", "CARRILES": "2", "LOCALIDAD": "Santa Fe", "INFRACCION": "C.29 - D.04 - C.35 - D.02" }, "geometry": { "type": "Point", "coordinates": [ -74.073740000419093, 4.60734500009678 ] } },
{ "type": "Feature", "properties": { "FID": 64, "OBJECTID_1": 64, "ID_CÁMARA": "DEI-028/CAM-01", "NOMBRE_DEL": "AK 7 - CL 94 (N-S)", "LONGITUD": -74.042353, "LATITUD": 4.673883, "DIRECCIÓN": "AK 7 - CL 93A (N-S)", "NÚMERO_DE": "MT-20194000563451 Noviembre 19 de 2019", "VELOCIDADM": "60", "CORREDOR_P": "Av. Carrera 7", "VIA_SECUND": "CL 94", "SENTIDO": "(Norte - Sur)", "CALZADA": "Única", "CARRILES": "3", "LOCALIDAD": "Chapinero", "INFRACCION": "C.29 - C.14 - C.35 - D.02" }, "geometry": { "type": "Point", "coordinates": [ -74.042353000037593, 4.67388299948906 ] } },
{ "type": "Feature", "properties": { "FID": 65, "OBJECTID_1": 65, "ID_CÁMARA": "DEI-028/CAM-02", "NOMBRE_DEL": "AK 7 - CL 94 (S-N)", "LONGITUD": -74.042309, "LATITUD": 4.673842, "DIRECCIÓN": "AK 7 - CL 93A (S-N)", "NÚMERO_DE": "MT-20194000563451 Noviembre 19 de 2019", "VELOCIDADM": "60", "CORREDOR_P": "Av. Carrera 7", "VIA_SECUND": "CL 94", "SENTIDO": "(Sur - Norte)", "CALZADA": "Única", "CARRILES": "3", "LOCALIDAD": "Chapinero", "INFRACCION": "C.29 - C.14 - C.35 - D.02" }, "geometry": { "type": "Point", "coordinates": [ -74.042308999656697, 4.67384199973018 ] } },
{ "type": "Feature", "properties": { "FID": 66, "OBJECTID_1": 66, "ID_CÁMARA": "DEI-029/CAM-01", "NOMBRE_DEL": "AUTONORTE - CL 116 (N-S) C. LEN", "LONGITUD": -74.055795, "LATITUD": 4.696591, "DIRECCIÓN": "AUTP. NORTE - CL 108 (N-S)", "NÚMERO_DE": "MT. No.: 20204000111021 Marzo 27 de 2020", "VELOCIDADM": "60", "CORREDOR_P": "Autopista Norte", "VIA_SECUND": "CL 116", "SENTIDO": "(Norte - Sur)", "CALZADA": "Lenta", "CARRILES": "2", "LOCALIDAD": "Suba", "INFRACCION": "C.29 - C.35 - D.02" }, "geometry": { "type": "Point", "coordinates": [ -74.055795000080394, 4.69659099943015 ] } },
{ "type": "Feature", "properties": { "FID": 67, "OBJECTID_1": 67, "ID_CÁMARA": "DEI-029/CAM-02", "NOMBRE_DEL": "AUTONORTE - CL 116 (N-S) C. RAP", "LONGITUD": -74.055696, "LATITUD": 4.696583, "DIRECCIÓN": "AUTP. NORTE - CL 108 (N-S)", "NÚMERO_DE": "MT. No.: 20204000111021 Marzo 27 de 2020", "VELOCIDADM": "60", "CORREDOR_P": "Autopista Norte", "VIA_SECUND": "CL 116", "SENTIDO": "(Norte - Sur)", "CALZADA": "Rápida", "CARRILES": "3", "LOCALIDAD": "Suba", "INFRACCION": "C.29 - C.35 - D.02" }, "geometry": { "type": "Point", "coordinates": [ -74.055696000346103, 4.69658299993376 ] } },
{ "type": "Feature", "properties": { "FID": 68, "OBJECTID_1": 68, "ID_CÁMARA": "DEI-029/CAM-03", "NOMBRE_DEL": "AUTONORTE - CL 116 (S-N) C. RAP", "LONGITUD": -74.055279, "LATITUD": 4.696998, "DIRECCIÓN": "AUTP. NORTE - CL 109 (S-N)", "NÚMERO_DE": "MT. No.: 20204000111021 Marzo 27 de 2020", "VELOCIDADM": "60", "CORREDOR_P": "Autopista Norte", "VIA_SECUND": "CL 116", "SENTIDO": "(Sur - Norte)", "CALZADA": "Rápida", "CARRILES": "3", "LOCALIDAD": "Usaquén", "INFRACCION": "C.29 - C.35 - D.02" }, "geometry": { "type": "Point", "coordinates": [ -74.055278999696299, 4.69699799953961 ] } },
{ "type": "Feature", "properties": { "FID": 69, "OBJECTID_1": 69, "ID_CÁMARA": "DEI-029/CAM-04", "NOMBRE_DEL": "AUTONORTE - CL 116 (S-N) C. LEN", "LONGITUD": -74.05512, "LATITUD": 4.69697, "DIRECCIÓN": "AUTP. NORTE - CL 109 (S-N)", "NÚMERO_DE": "MT. No.: 20204000111021 Marzo 27 de 2020", "VELOCIDADM": "60", "CORREDOR_P": "Autopista Norte", "VIA_SECUND": "CL 116", "SENTIDO": "(Sur - Norte)", "CALZADA": "Lenta", "CARRILES": "2", "LOCALIDAD": "Usaquén", "INFRACCION": "C.29 - C.35 - D.02" }, "geometry": { "type": "Point", "coordinates": [ -74.055119999687705, 4.69696999997525 ] } },
{ "type": "Feature", "properties": { "FID": 70, "OBJECTID_1": 70, "ID_CÁMARA": "DEI-030/CAM-01", "NOMBRE_DEL": "AV BOYACA - CL 169B (N-S)", "LONGITUD": -74.065368, "LATITUD": 4.752992, "DIRECCIÓN": "AV BOYACÁ - CL 168 (N-S)", "NÚMERO_DE": "MT. No.: 20204000111021 Marzo 27 de 2020", "VELOCIDADM": "50", "CORREDOR_P": "Av. Boyacá", "VIA_SECUND": "CL 169 B", "SENTIDO": "(Norte - Sur)", "CALZADA": "Única", "CARRILES": "5", "LOCALIDAD": "Suba", "INFRACCION": "C.29 - C.35 - D.02" }, "geometry": { "type": "Point", "coordinates": [ -74.065368000211805, 4.75299199976444 ] } },
{ "type": "Feature", "properties": { "FID": 71, "OBJECTID_1": 71, "ID_CÁMARA": "DEI-030/CAM-02", "NOMBRE_DEL": "AV BOYACA - CL 169B (S-N)", "LONGITUD": -74.065277, "LATITUD": 4.752997, "DIRECCIÓN": "AV BOYACÁ - CL 167 (S-N)", "NÚMERO_DE": "MT. No.: 20204000111021 Marzo 27 de 2020", "VELOCIDADM": "50", "CORREDOR_P": "Av. Boyacá", "VIA_SECUND": "CL 169 B", "SENTIDO": "(Sur - Norte)", "CALZADA": "Única", "CARRILES": "5", "LOCALIDAD": "Suba", "INFRACCION": "C.29 - C.35 - D.02" }, "geometry": { "type": "Point", "coordinates": [ -74.065276999975197, 4.7529969996024 ] } },
{ "type": "Feature", "properties": { "FID": 72, "OBJECTID_1": 72, "ID_CÁMARA": "DEI-031/CAM-01", "NOMBRE_DEL": "AV CIUDAD DE CALI - CL 53 SUR (N-S)", "LONGITUD": -74.178725, "LATITUD": 4.624576, "DIRECCIÓN": "AV CIUDAD DE CALI - CL 52 SUR (N-S)", "NÚMERO_DE": "MT. No.: 20204000111021 Marzo 27 de 2020", "VELOCIDADM": "50", "CORREDOR_P": "Av. Ciudad de Cali", "VIA_SECUND": "CL 53 Sur", "SENTIDO": "(Norte - Sur)", "CALZADA": "Única", "CARRILES": "3", "LOCALIDAD": "Bosa", "INFRACCION": "D.04 - C.35 - D.02" }, "geometry": { "type": "Point", "coordinates": [ -74.1787250000515, 4.62457600003688 ] } },
{ "type": "Feature", "properties": { "FID": 73, "OBJECTID_1": 73, "ID_CÁMARA": "DEI-031/CAM-02", "NOMBRE_DEL": "AV CIUDAD DE CALI - CL 53 SUR (S-N)", "LONGITUD": -74.179132, "LATITUD": 4.623903, "DIRECCIÓN": "AV CIUDAD DE CALI - CL 53 SUR (S-N)", "NÚMERO_DE": "MT. No.: 20204000111021 Marzo 27 de 2020", "VELOCIDADM": "50", "CORREDOR_P": "Av. Ciudad de Cali", "VIA_SECUND": "CL 53 Sur", "SENTIDO": "(Sur - Norte)", "CALZADA": "Única", "CARRILES": "3", "LOCALIDAD": "Bosa", "INFRACCION": "D.04 - C.35 - D.02" }, "geometry": { "type": "Point", "coordinates": [ -74.179131999757203, 4.62390299987865 ] } },
{ "type": "Feature", "properties": { "FID": 74, "OBJECTID_1": 74, "ID_CÁMARA": "DEI-032/CAM-01", "NOMBRE_DEL": "AV SUBA - AV CIUDAD DE CALI (S-N)", "LONGITUD": -74.0965, "LATITUD": 4.746056, "DIRECCIÓN": "AV CIUDAD DE CALI - AV SUBA (S-N)", "NÚMERO_DE": "MT. No.: 20204000111021 Marzo 27 de 2020", "VELOCIDADM": "50", "CORREDOR_P": "Av. Ciudad de Cali", "VIA_SECUND": "Av. Suba", "SENTIDO": "(Sur - Norte)", "CALZADA": "Única", "CARRILES": "3", "LOCALIDAD": "Suba", "INFRACCION": "C.29 - D.04 - C.35 - D.02" }, "geometry": { "type": "Point", "coordinates": [ -74.096500000325193, 4.74605599984988 ] } },
{ "type": "Feature", "properties": { "FID": 75, "OBJECTID_1": 75, "ID_CÁMARA": "DEI-032/CAM-02", "NOMBRE_DEL": "AV SUBA - AV CIUDAD DE CALI (N-S)", "LONGITUD": -74.096011, "LATITUD": 4.74701, "DIRECCIÓN": " AV CIUDAD DE CALI - AV SUBA (N-S)", "NÚMERO_DE": "MT. No.: 20204000111021 Marzo 27 de 2020", "VELOCIDADM": "50", "CORREDOR_P": "Av. Ciudad de Cali", "VIA_SECUND": "Av. Suba", "SENTIDO": "(Norte - Sur)", "CALZADA": "Única", "CARRILES": "3", "LOCALIDAD": "Suba", "INFRACCION": "C.29 - D.04 - C.35 - D.02" }, "geometry": { "type": "Point", "coordinates": [ -74.096010999705399, 4.74701000025174 ] } },
{ "type": "Feature", "properties": { "FID": 76, "OBJECTID_1": 76, "ID_CÁMARA": "DEI-033/CAM-01", "NOMBRE_DEL": "AC 80 - KR 114 (O-E)", "LONGITUD": -74.122138, "LATITUD": 4.722724, "DIRECCIÓN": "AC 80 - KR 114 (O-E)", "NÚMERO_DE": "MT. No.: 20204000111021 Marzo 27 de 2020", "VELOCIDADM": "50", "CORREDOR_P": "Av. Calle 80", "VIA_SECUND": "KR 114", "SENTIDO": "(Occidente - Oriente)", "CALZADA": "Rápida", "CARRILES": "2", "LOCALIDAD": "Engativá", "INFRACCION": "C.29 - C.35 - D.02" }, "geometry": { "type": "Point", "coordinates": [ -74.1221380002807, 4.72272399948055 ] } },
{ "type": "Feature", "properties": { "FID": 77, "OBJECTID_1": 77, "ID_CÁMARA": "DEI-033/CAM-02", "NOMBRE_DEL": "AC 80 - KR 114 (E-O)", "LONGITUD": -74.122144, "LATITUD": 4.723064, "DIRECCIÓN": "AC 80 - KR 114 (E-O)", "NÚMERO_DE": "MT. No.: 20204000111021 Marzo 27 de 2020", "VELOCIDADM": "50", "CORREDOR_P": "Av. Calle 80", "VIA_SECUND": "KR 114", "SENTIDO": "(Oriente - Occidente)", "CALZADA": "Rápida", "CARRILES": "2", "LOCALIDAD": "Engativá", "INFRACCION": "C.29 - C.35 - D.02" }, "geometry": { "type": "Point", "coordinates": [ -74.1221440001285, 4.72306399968464 ] } },
{ "type": "Feature", "properties": { "FID": 78, "OBJECTID_1": 78, "ID_CÁMARA": "DEI-034/CAM-01", "NOMBRE_DEL": "CL 116 - KR 9 (N-S)", "LONGITUD": -74.035219, "LATITUD": 4.693124, "DIRECCIÓN": "AK 9 - CL 113 (N-S)", "NÚMERO_DE": "MT. No.: 20204000111021 Marzo 27 de 2020", "VELOCIDADM": "60", "CORREDOR_P": "Av. Carrera 9", "VIA_SECUND": "KR 9", "SENTIDO": "(Norte - Sur)", "CALZADA": "Única", "CARRILES": "3", "LOCALIDAD": "Usaquén", "INFRACCION": "C.29 - C.35 - D.02" }, "geometry": { "type": "Point", "coordinates": [ -74.035218999564407, 4.69312400014646 ] } },
{ "type": "Feature", "properties": { "FID": 79, "OBJECTID_1": 79, "ID_CÁMARA": "DEI-034/CAM-02", "NOMBRE_DEL": "CL 116 - KR 9 (S-N)", "LONGITUD": -74.035246, "LATITUD": 4.692432, "DIRECCIÓN": "AK 9 - CL 113 (S-N)", "NÚMERO_DE": "MT. No.: 20204000111021 Marzo 27 de 2020", "VELOCIDADM": "60", "CORREDOR_P": "Av. Carrera 9", "VIA_SECUND": "KR 9", "SENTIDO": "(Sur - Norte)", "CALZADA": "Única", "CARRILES": "3", "LOCALIDAD": "Usaquén", "INFRACCION": "C.29 - C.35 - D.02" }, "geometry": { "type": "Point", "coordinates": [ -74.035246000226905, 4.69243200009011 ] } },
{ "type": "Feature", "properties": { "FID": 80, "OBJECTID_1": 80, "ID_CÁMARA": "DEI-035/CAM-01", "NOMBRE_DEL": "AK 68 - AC 80 (S-N) C. RAP", "LONGITUD": -74.077759, "LATITUD": 4.684991, "DIRECCIÓN": "AK 68 - CL 87 (N-S)", "NÚMERO_DE": "MT. No.: 20204000111021 Marzo 27 de 2020", "VELOCIDADM": "50", "CORREDOR_P": "Av. Carrera 68", "VIA_SECUND": "AC 80", "SENTIDO": "(Sur - Norte)", "CALZADA": "Rápida", "CARRILES": "2", "LOCALIDAD": "Engativá", "INFRACCION": "C.29 - C.35 - D.02" }, "geometry": { "type": "Point", "coordinates": [ -74.077759000118206, 4.68499099946981 ] } },
{ "type": "Feature", "properties": { "FID": 81, "OBJECTID_1": 81, "ID_CÁMARA": "DEI-035/CAM-02", "NOMBRE_DEL": "AK 68 - AC 80 (N-S) C. RAP", "LONGITUD": -74.077708, "LATITUD": 4.685052, "DIRECCIÓN": "AK 68 - CL 87 (S-N)", "NÚMERO_DE": "MT. No.: 20204000111021 Marzo 27 de 2020", "VELOCIDADM": "50", "CORREDOR_P": "Av. Carrera 68", "VIA_SECUND": "AC 80", "SENTIDO": "(Norte - Sur)", "CALZADA": "Rápida", "CARRILES": "2", "LOCALIDAD": "Engativá", "INFRACCION": "C.29 - C.35 - D.02" }, "geometry": { "type": "Point", "coordinates": [ -74.077708000064604, 4.68505199988559 ] } },
{ "type": "Feature", "properties": { "FID": 82, "OBJECTID_1": 82, "ID_CÁMARA": "DEI-036/CAM-01", "NOMBRE_DEL": "AUTONORTE - CL 127 (N-S) C. LEN", "LONGITUD": -74.05369, "LATITUD": 4.70998, "DIRECCIÓN": "AUTP. NORTE - CL 127B (N-S)", "NÚMERO_DE": "MT. No.: 20204000111021 Marzo 27 de 2020", "VELOCIDADM": "60", "CORREDOR_P": "Autopista Norte", "VIA_SECUND": "CL 127", "SENTIDO": "(Norte - Sur)", "CALZADA": "Lenta", "CARRILES": "2", "LOCALIDAD": "Suba", "INFRACCION": "C.29 - C.35 - D.02" }, "geometry": { "type": "Point", "coordinates": [ -74.053690000333006, 4.70997999981097 ] } },
{ "type": "Feature", "properties": { "FID": 83, "OBJECTID_1": 83, "ID_CÁMARA": "DEI-036/CAM-02", "NOMBRE_DEL": "AUTONORTE - CL 127 (N-S) C. RAP", "LONGITUD": -74.053494, "LATITUD": 4.709959, "DIRECCIÓN": "AUTP. NORTE - CL 127B (N-S)", "NÚMERO_DE": "MT. No.: 20204000111021 Marzo 27 de 2020", "VELOCIDADM": "60", "CORREDOR_P": "Autopista Norte", "VIA_SECUND": "CL 127", "SENTIDO": "(Norte - Sur)", "CALZADA": "Rápida", "CARRILES": "3", "LOCALIDAD": "Suba", "INFRACCION": "C.29 - C.35 - D.02" }, "geometry": { "type": "Point", "coordinates": [ -74.053493999616094, 4.70995900008162 ] } },
{ "type": "Feature", "properties": { "FID": 84, "OBJECTID_1": 84, "ID_CÁMARA": "DEI-036/CAM-03", "NOMBRE_DEL": "AUTONORTE - CL 127 (S-N) C. RAP", "LONGITUD": -74.053268, "LATITUD": 4.709374, "DIRECCIÓN": "AUTP. NORTE - CL 127 (S-N)", "NÚMERO_DE": "MT. No.: 20204000111021 Marzo 27 de 2020", "VELOCIDADM": "60", "CORREDOR_P": "Autopista Norte", "VIA_SECUND": "CL 127", "SENTIDO": "(Sur - Norte)", "CALZADA": "Rápida", "CARRILES": "3", "LOCALIDAD": "Usaquén", "INFRACCION": "C.29 - C.35 - D.02" }, "geometry": { "type": "Point", "coordinates": [ -74.053267999660306, 4.70937399943688 ] } },
{ "type": "Feature", "properties": { "FID": 85, "OBJECTID_1": 85, "ID_CÁMARA": "DEI-036/CAM-04", "NOMBRE_DEL": "AUTONORTE - CL 127 (S-N) C. LEN", "LONGITUD": -74.053075, "LATITUD": 4.709357, "DIRECCIÓN": "AUTP. NORTE - CL 127 (S-N)", "NÚMERO_DE": "MT. No.: 20204000111021 Marzo 27 de 2020", "VELOCIDADM": "60", "CORREDOR_P": "Autopista Norte", "VIA_SECUND": "CL 127", "SENTIDO": "(Sur - Norte)", "CALZADA": "Lenta", "CARRILES": "3", "LOCALIDAD": "Usaquén", "INFRACCION": "C.29 - C.35 - D.02" }, "geometry": { "type": "Point", "coordinates": [ -74.053075000214704, 4.70935699981174 ] } },
{ "type": "Feature", "properties": { "FID": 86, "OBJECTID_1": 86, "ID_CÁMARA": "DEI-037/CAM-01", "NOMBRE_DEL": "AV CIUDAD DE CALI - AV VILLAVICENCIO (S-N)", "LONGITUD": -74.172451, "LATITUD": 4.627521, "DIRECCIÓN": "AV CIUDAD DE CALI - CL 43 SUR (N-S)", "NÚMERO_DE": "MT. No.: 20204000111021 Marzo 27 de 2020", "VELOCIDADM": "50", "CORREDOR_P": "Av. Ciudad de Cali", "VIA_SECUND": "Av. Villavicencio", "SENTIDO": "(Norte - Sur)", "CALZADA": "Única", "CARRILES": "3", "LOCALIDAD": "Kennedy", "INFRACCION": "C.29 - C.35 - D.02" }, "geometry": { "type": "Point", "coordinates": [ -74.172450999918894, 4.6275210002407 ] } },
{ "type": "Feature", "properties": { "FID": 87, "OBJECTID_1": 87, "ID_CÁMARA": "DEI-037/CAM-02", "NOMBRE_DEL": "AV CIUDAD DE CALI - AV VILLAVICENCIO (N-S)", "LONGITUD": -74.172072, "LATITUD": 4.627932, "DIRECCIÓN": "AV CIUDAD DE CALI - CL 43 SUR (S-N)", "NÚMERO_DE": "MT. No.: 20204000111021 Marzo 27 de 2020", "VELOCIDADM": "50", "CORREDOR_P": "Av. Ciudad de Cali", "VIA_SECUND": "Av. Villavicencio", "SENTIDO": "(Sur - Norte)", "CALZADA": "Única", "CARRILES": "3", "LOCALIDAD": "Kennedy", "INFRACCION": "C.29 - C.35 - D.02" }, "geometry": { "type": "Point", "coordinates": [ -74.1720719998021, 4.62793199976359 ] } },
{ "type": "Feature", "properties": { "FID": 88, "OBJECTID_1": 88, "ID_CÁMARA": "DEI-038/CAM-01", "NOMBRE_DEL": "AUTP. SUR - CL 59 SUR (O-E)", "LONGITUD": -74.175915, "LATITUD": 4.596582, "DIRECCIÓN": "AUTP. SUR - KR 75D (O-E)", "NÚMERO_DE": "MT. No.: 20204000111021 Marzo 27 de 2020", "VELOCIDADM": "60", "CORREDOR_P": "Autopista Sur", "VIA_SECUND": "CL 59 Sur", "SENTIDO": "(Occidente - Oriente)", "CALZADA": "Única", "CARRILES": "3", "LOCALIDAD": "Ciudad Bolívar", "INFRACCION": "C.29 - C.35 - D.02" }, "geometry": { "type": "Point", "coordinates": [ -74.175914999774093, 4.59658200005607 ] } },
{ "type": "Feature", "properties": { "FID": 89, "OBJECTID_1": 89, "ID_CÁMARA": "DEI-038/CAM-02", "NOMBRE_DEL": "AUTP. SUR - CL 59 SUR (E-O)", "LONGITUD": -74.17482, "LATITUD": 4.596834, "DIRECCIÓN": "AUTP. SUR - KR 75A (E-O)", "NÚMERO_DE": "MT. No.: 20204000111021 Marzo 27 de 2020", "VELOCIDADM": "60", "CORREDOR_P": "Autopista Sur", "VIA_SECUND": "CL 59 Sur", "SENTIDO": "(Oriente - Occidente)", "CALZADA": "Única", "CARRILES": "3", "LOCALIDAD": "Bosa", "INFRACCION": "C.29 - C.35 - D.02" }, "geometry": { "type": "Point", "coordinates": [ -74.174820000155194, 4.59683399975002 ] } },
{ "type": "Feature", "properties": { "FID": 90, "OBJECTID_1": 90, "ID_CÁMARA": "DEI-039/CAM-01", "NOMBRE_DEL": "AV AMÉRICAS - KR 70B (O-E)", "LONGITUD": -74.133246, "LATITUD": 4.62979, "DIRECCIÓN": "AV AMÉRICAS - KR 70B (O-E)", "NÚMERO_DE": "MT. No.: 20204000111021 Marzo 27 de 2020", "VELOCIDADM": "50", "CORREDOR_P": "Av. Américas", "VIA_SECUND": "KR 70 B", "SENTIDO": "(Occidente - Oriente)", "CALZADA": "Única", "CARRILES": "5", "LOCALIDAD": "Kennedy", "INFRACCION": "C.29 - C.14 - C.35 - D.02" }, "geometry": { "type": "Point", "coordinates": [ -74.133246000247198, 4.62978999946895 ] } },
{ "type": "Feature", "properties": { "FID": 91, "OBJECTID_1": 91, "ID_CÁMARA": "DEI-039/CAM-02", "NOMBRE_DEL": "AV AMÉRICAS - KR 70B (E-O)", "LONGITUD": -74.133241, "LATITUD": 4.630167, "DIRECCIÓN": "AV AMÉRICAS - KR 71 (E-O)", "NÚMERO_DE": "MT. No.: 20204000111021 Marzo 27 de 2020", "VELOCIDADM": "50", "CORREDOR_P": "Av. Américas", "VIA_SECUND": "KR 70 B", "SENTIDO": "(Oriente - Occidente)", "CALZADA": "Única", "CARRILES": "5", "LOCALIDAD": "Kennedy", "INFRACCION": "C.29 - C.14 - C.35 - D.02" }, "geometry": { "type": "Point", "coordinates": [ -74.133241000224302, 4.63016699995784 ] } },
{ "type": "Feature", "properties": { "FID": 92, "OBJECTID_1": 92, "ID_CÁMARA": "DEI-040/CAM-01", "NOMBRE_DEL": "CL 63 SUR - KR 98A (E-O)", "LONGITUD": -74.198416, "LATITUD": 4.633862, "DIRECCIÓN": "CL 63 SUR - KR 97B (E-O)", "NÚMERO_DE": "MT. No.: 20204000111021 Marzo 27 de 2020", "VELOCIDADM": "30", "CORREDOR_P": "Calle 63 Sur", "VIA_SECUND": "KR 98 A", "SENTIDO": "(Oriente - Occidente)", "CALZADA": "Única", "CARRILES": "3", "LOCALIDAD": "Bosa", "INFRACCION": "C.29 - C.35 - D.02" }, "geometry": { "type": "Point", "coordinates": [ -74.198416000112402, 4.6338619995422 ] } }
]
}
